#aV2022 11  1  0  0  0.00000000     288 DD+AD WGS84 FIT  NGA
## 2234 172800.00000000   300.00000000 59884 0.0000000000000
+   32     1  2  3  4  5  6  7  8  9 10 11 12 13 14 15 16 17
+         18 19 20 21 22 23 24 25 26 27 28 29 30 31 32  0  0
+          0  0  0  0  0  0  0  0  0  0  0  0  0  0  0  0  0
+          0  0  0  0  0  0  0  0  0  0  0  0  0  0  0  0  0
+          0  0  0  0  0  0  0  0  0  0  0  0  0  0  0  0  0
++         2  2  2  2  2  2  2  2  2  2  2  2  2  2  2  2  2
++         2  2  2  2  2  2  2  2  2  2  2  2  2  2  2  0  0
++         0  0  0  0  0  0  0  0  0  0  0  0  0  0  0  0  0
++         0  0  0  0  0  0  0  0  0  0  0  0  0  0  0  0  0
++         0  0  0  0  0  0  0  0  0  0  0  0  0  0  0  0  0
%c cc cc ccc ccc cccc cccc cccc cccc ccccc ccccc ccccc ccccc
%c cc cc ccc ccc cccc cccc cccc cccc ccccc ccccc ccccc ccccc
%f  0.0000000  0.000000000  0.00000000000  0.000000000000000
%f  0.0000000  0.000000000  0.00000000000  0.000000000000000
%i    0    0    0    0      0      0      0      0         0
%i    0    0    0    0      0      0      0      0         0
/*      NGA, ST. LOUIS,MO.                                  
/*   EPHEMERIS COMPUTED FROM 2 DAYS OF DATA                 
/*   EPOCHA v8 SMOOTHER                                     
/*   G2139 IERS2010 SATIGS SATAPC                           
*  2022 11  1  0  5  0.00000000
P  1    -84.137961 -15213.845861 -22038.733038    258.681943                    
V  1  26015.085428  -7997.242099   5828.086632     -0.058563                    
P  2   1581.183905  15821.397872  21953.239382   -639.918863                    
V  2 -24257.335814  10180.009511  -5586.190077      0.017074                    
P  3  -7635.302687 -20436.043489 -15349.410421   -369.699982                    
V  3  15500.653724  11426.135184 -23006.413670     -0.029205                    
P  4    -97.707008 -25179.347377   8291.486709    -94.240891                    
V  4   4982.913879  -9678.373765 -29437.948329      0.064388                    
P  5  -4346.370653  15292.160982  21081.728739   -102.554833                    
V  5 -21709.725474 -16392.780272   7470.762567     -0.014538                    
P  6 -25635.138420   6048.890321  -3653.368855    506.672559                    
V  6   3864.664673  -3252.412368 -31864.277847      0.099947                    
P  7 -16214.857213  -9213.770215  19507.423582    292.718380                    
V  7  22158.364296  -8626.753203  14176.081601     -0.042729                    
P  8   6004.253652 -25560.618681   2286.943911    -91.607619                    
V  8   2559.049703   3466.627282  31830.604378     -0.018583                    
P  9  -9009.267157 -18244.398386  16969.125003   -275.290566                    
V  9   5628.495839 -21080.466906 -19626.304858      0.054522                    
P 10  22312.553829   9335.367984 -11175.845834     -9.946743                    
V 10   9600.272177  10746.404322  27452.595952     -0.016588                    
P 11 -22232.200572  12093.264381   7999.192173    -33.070747                    
V 11 -10467.638760    328.368537 -29640.564553     -0.052626                    
P 12   5592.931913  20937.817882 -15693.571539   -298.892194                    
V 12 -14872.020936 -12549.979608 -22326.047617     -0.044792                    
P 13 -13181.154867  21426.083809   8048.564514    416.418282                    
V 13    970.657034 -10766.130852  29793.803512      0.069165                    
P 14 -22102.506365 -11295.431440  -9599.637524    -88.766752                    
V 14  -7036.142142 -10310.787268  28194.722739      0.045750                    
P 15  -2731.656077  26183.894807   1554.838914    -16.209847                    
V 15  -3874.262477  -2761.853550  31179.221141      0.031780                    
P 16  10947.094588 -10171.480825  21679.106028   -526.768599                    
V 16  19647.052116  20202.844243     12.713472     -0.002244                    
P 17 -13925.928254  -4654.037335 -21690.279496    673.933506                    
V 17   7350.013979 -27604.163992   1247.724070      0.033397                    
P 18  17392.779412   7708.934931  18592.216245     -5.445640                    
V 18 -22026.846642   8358.330082  16999.254647     -0.137237                    
P 19 -16286.022994   6875.666002 -19974.213831    231.324454                    
V 19   6331.802980 -24095.210174 -13867.091198      0.050627                    
P 20 -16191.536502   6838.215027  19861.415409    473.798574                    
V 20 -20786.605193 -14503.888667 -12186.840893     -0.030737                    
P 21   8727.241709 -17094.044496 -17411.382078    156.980310                    
V 21  22527.897087  -7432.386892  18706.496588     -0.007468                    
P 22  15989.527499 -10444.383566 -17963.212420    356.110599                    
V 22  -4786.773157  23308.065994 -17580.807142      0.070513                    
P 23  21067.445671  16252.601967  -1210.678165     -1.145892                    
V 23   -339.882916   2806.048043  31837.062286      0.000178                    
P 24  -3303.667995  17511.067469 -19904.809368     77.658357                    
V 24 -23306.118080   8545.081116  12003.432159     -0.153176                    
P 25  15848.964252  20327.444184  -7273.975545    388.110429                    
V 25  -8335.241808  -3773.826353 -29647.537232      0.038177                    
P 26  19065.454081  -2404.865859  18374.303606    234.384184                    
V 26  17592.292421  15657.969206 -15795.313606      0.012365                    
P 27  12526.360508 -19381.170816  12566.427052    187.618664                    
V 27   -764.563137  16601.473127  26308.320292     -0.075986                    
P 28 -16067.284879  12258.139075 -16600.833354    321.086362                    
V 28 -22198.565471   -916.055121  20452.096780     -0.055540                    
P 29   5949.835737  19934.755349  16421.297950   -563.899769                    
V 29  -7068.609902  19754.681959 -21443.356487     -0.027820                    
P 30 -24113.293257   -975.885038  11464.578945   -537.030098                    
V 30  12783.797322  -7172.952997  26231.383994      0.002062                    
P 31  25939.908763  -6364.134852  -2509.120599   -198.695948                    
V 31  -2044.000804   3355.222936 -31116.628020     -0.012718                    
P 32  15229.324295   1013.094116 -21577.366152   -281.388186                    
V 32  -4823.195167  27355.174644  -2299.603371     -0.122869                    
EOF
